OBJECT_NAME,OBJECT_ID,EPOCH,MEAN_MOTION,ECCENTRICITY,INCLINATION,RA_OF_ASC_NODE,ARG_OF_PERICENTER,MEAN_ANOMALY,EPHEMERIS_TYPE,CLASSIFICATION_TYPE,NORAD_CAT_ID,ELEMENT_SET_NO,REV_AT_EPOCH,BSTAR,MEAN_MOTION_DOT,MEAN_MOTION_DDOT
USA 167,2003-008A,2026-07-20T03:14:24.743040,1.00270864,.00034987,11.0252,43.1090,315.4784,226.1380,0,U,27691,999,710,0,-.4E-7,0
USA 169 (MILSTAR-2 4),2003-012A,2026-07-19T20:44:32.231616,1.00273146,.00994604,12.3982,29.5719,10.4576,0.9139,0,U,27711,999,3328,0,-.205E-5,0
ASIASAT 4,2003-014A,2026-07-19T22:25:57.025920,1.00271536,.00028045,4.7845,75.3308,44.0260,302.3968,0,U,27718,999,4562,0,-.228E-5,0
HELLAS-SAT 2,2003-020A,2026-07-19T23:21:38.716992,1.00272137,.00039397,7.4341,67.4884,84.0317,126.6099,0,U,27811,999,4317,0,-.91E-6,0
THURAYA-2,2003-026A,2026-07-20T04:47:00.076416,1.00273380,.00022604,8.8885,31.8183,28.3634,353.5583,0,U,27825,999,8468,0,.118E-5,0
OPTUS C1,2003-028B,2026-07-19T20:45:39.625344,1.00269257,.00053758,6.9694,69.0103,44.4984,291.2025,0,U,27831,999,5338,0,-.16E-5,0
USA 170,2003-040A,2026-07-20T04:41:30.602112,1.00276893,.0001969,10.5694,47.6293,82.9931,262.0356,0,U,27875,999,3332,0,.118E-5,0
GALAXY 13 (HORIZONS-1),2003-044A,2026-07-20T07:07:46.595712,1.00273574,.00020895,1.5017,83.4321,39.4247,132.1575,0,U,27954,999,4690,0,.13E-5,0
YAMAL 202,2003-053A,2026-07-19T20:47:54.409344,1.00271598,.00031692,6.4225,70.5388,46.9098,295.7035,0,U,28089,999,8302,0,-.87E-6,0
UFO 11 (USA 174),2003-057A,2026-07-20T01:30:45.607104,1.00270736,.00027856,8.9552,33.6429,103.2012,259.2393,0,U,28117,999,8278,0,-.111E-5,0
USA 176 (DSP 22),2004-004A,2026-07-19T21:29:42.999648,1.00264651,.00010787,12.1061,25.8251,307.7692,236.9490,0,U,28158,999,3326,0,-.305E-5,0
ABS-4 (MOBISAT-1),2004-007A,2026-07-20T04:51:52.109280,1.00274638,.00045518,6.1217,71.6001,51.6416,308.6987,0,U,28184,999,5266,0,.33E-6,0
INTELSAT 10-02,2004-022A,2026-07-20T01:08:55.200768,1.00272053,.00002227,0.0538,253.4772,309.5985,110.9753,0,U,28358,999,8088,0,-.14E-6,0
ANIK F2,2004-027A,2026-07-20T06:26:38.783616,1.00272104,.00037164,3.3712,79.0060,34.3969,170.1720,0,U,28378,999,4159,0,-.54E-6,0
AMC-15,2004-041A,2026-07-20T07:03:23.664960,1.00271808,.0002365,0.0376,291.2463,185.2242,182.3918,0,U,28446,999,7963,0,-.9E-6,0
NSS-10,2005-003A,2026-07-20T00:58:26.206176,1.00272011,.00028336,6.5303,70.0517,45.2322,159.6897,0,U,28526,999,5348,0,-.258E-5,0
INMARSAT 4-F1,2005-009A,2026-07-20T07:32:00.790656,1.00272496,.00027469,5.2135,42.7959,74.8304,111.5592,0,U,28628,999,7800,0,.28E-6,0
DIRECTV 8,2005-019A,2026-07-20T05:36:40.948128,1.00272634,.00031095,0.0192,64.5817,59.6642,138.8770,0,U,28659,999,7740,0,-.1E-7,0
GALAXY 28 (G-28),2005-022A,2026-07-20T06:09:26.998272,1.00270962,.00024374,3.3806,78.5215,37.3715,247.4043,0,U,28702,999,5230,0,-.204E-5,0
THAICOM 4,2005-028A,2026-07-20T06:51:15.489216,1.00272112,.00016626,0.3288,85.5284,7.9778,66.8677,0,U,28786,999,5258,0,-.364E-5,0
ANIK F1R,2005-036A,2026-07-20T06:30:12.428352,1.00272198,.00039572,4.3953,76.1679,22.0739,190.0458,0,U,28868,999,4678,0,-.8E-6,0
SYRACUSE 3A,2005-041B,2026-07-20T06:30:24.988320,1.00270658,.00026323,4.7230,75.4287,35.9553,330.8961,0,U,28885,999,7608,0,.124E-5,0
INMARSAT 4-F2,2005-044A,2026-07-20T06:58:07.330368,1.00271135,.00029242,5.1387,43.6796,61.7327,80.6729,0,U,28899,999,7585,0,-.265E-5,0
METEOSAT-9 (MSG-2),2005-049B,2026-07-20T04:47:30.027840,1.00274969,.00024377,9.4343,53.8381,358.7484,2.9518,0,U,28912,999,733,0,.116E-5,0
EUTELSAT 174A,2005-052A,2026-07-19T20:50:46.633920,1.00272749,.00060214,4.2996,76.1227,42.5221,305.6472,0,U,28924,999,5265,0,.3E-7,0
ECHOSTAR 10,2006-003A,2026-07-20T05:41:19.138848,1.00271439,.00016308,0.0433,289.6204,149.6957,193.8388,0,U,28935,999,7479,0,-.57E-6,0
SPAINSAT,2006-007A,2026-07-19T06:12:45.343296,1.00273069,.00048616,0.6444,86.0183,28.0098,246.0049,0,U,28945,999,7454,0,-.222E-5,0
JCSAT-5A,2006-010A,2026-07-20T06:54:37.666080,1.00272009,.00018836,1.1929,83.8471,26.4828,63.4369,0,U,29045,999,7410,0,-.33E-5,0
ASTRA 1KR,2006-012A,2026-07-20T06:22:33.241728,1.00273240,.0003492,0.5573,83.1912,27.9824,301.4994,0,U,29055,999,4602,0,.117E-5,0
GALAXY 16 (G-16),2006-023A,2026-07-20T06:50:46.412160,1.00271658,.00027015,0.0250,139.4045,340.1404,182.1953,0,U,29236,999,7330,0,-.129E-5,0
EUTELSAT 33F,2006-032A,2026-07-20T06:26:32.859168,1.00274956,.0003615,1.7452,81.8749,33.0810,312.8145,0,U,29270,999,4763,0,.153E-5,0
JCSAT-3A,2006-033A,2026-07-20T06:53:37.760640,1.00271304,.00023037,0.0351,269.3687,213.1640,46.9420,0,U,29272,999,4807,0,-.347E-5,0
