USA 167                 
1 27691U 03008A   26201.13500860 -.00000004  00000+0  00000+0 0  9993
2 27691  11.0252  43.1090 0003498 315.4784 226.1380  1.00270864  7109
USA 169 (MILSTAR-2 4)   
1 27711U 03012A   26200.86426194 -.00000205  00000+0  00000+0 0  9990
2 27711  12.3982  29.5719 0099460  10.4576   0.9139  1.00273146 33281
ASIASAT 4               
1 27718U 03014A   26200.93468780 -.00000228  00000+0  00000+0 0  9999
2 27718   4.7845  75.3308 0002804  44.0260 302.3968  1.00271536 45624
HELLAS-SAT 2            
1 27811U 03020A   26200.97336478 -.00000091  00000+0  00000+0 0  9990
2 27811   7.4341  67.4884 0003939  84.0317 126.6099  1.00272137 43175
THURAYA-2               
1 27825U 03026A   26201.19930644  .00000118  00000+0  00000+0 0  9990
2 27825   8.8885  31.8183 0002260  28.3634 353.5583  1.00273380 84685
OPTUS C1                
1 27831U 03028B   26200.86504196 -.00000160  00000+0  00000+0 0  9999
2 27831   6.9694  69.0103 0005375  44.4984 291.2025  1.00269257 53381
USA 170                 
1 27875U 03040A   26201.19549308  .00000118  00000+0  00000+0 0  9994
2 27875  10.5694  47.6293 0001969  82.9931 262.0356  1.00276893 33325
GALAXY 13 (HORIZONS-1)  
1 27954U 03044A   26201.29706708  .00000130  00000+0  00000+0 0  9990
2 27954   1.5017  83.4321 0002089  39.4247 132.1575  1.00273574 46904
YAMAL 202               
1 28089U 03053A   26200.86660196 -.00000087  00000+0  00000+0 0  9994
2 28089   6.4225  70.5388 0003169  46.9098 295.7035  1.00271598 83021
UFO 11 (USA 174)        
1 28117U 03057A   26201.06302786 -.00000111  00000+0  00000+0 0  9999
2 28117   8.9552  33.6429 0002785 103.2012 259.2393  1.00270736 82782
USA 176 (DSP 22)        
1 28158U 04004A   26200.89563657 -.00000305  00000+0  00000+0 0  9998
2 28158  12.1061  25.8251 0001078 307.7692 236.9490  1.00264651 33262
ABS-4 (MOBISAT-1)       
1 28184U 04007A   26201.20268645  .00000033  00000+0  00000+0 0  9992
2 28184   6.1217  71.6001 0004551  51.6416 308.6987  1.00274638 52666
INTELSAT 10-02          
1 28358U 04022A   26201.04786112 -.00000014  00000+0  00000+0 0  9998
2 28358   0.0538 253.4772 0000222 309.5985 110.9753  1.00272053 80889
ANIK F2                 
1 28378U 04027A   26201.26850444 -.00000054  00000+0  00000+0 0  9993
2 28378   3.3712  79.0060 0003716  34.3969 170.1720  1.00272104 41593
AMC-15                  
1 28446U 04041A   26201.29402390 -.00000090  00000+0  00000+0 0  9991
2 28446   0.0376 291.2463 0002365 185.2242 182.3918  1.00271808 79633
NSS-10                  
1 28526U 05003A   26201.04058109 -.00000258  00000+0  00000+0 0  9993
2 28526   6.5303  70.0517 0002833  45.2322 159.6897  1.00272011 53485
INMARSAT 4-F1           
1 28628U 05009A   26201.31389804  .00000028  00000+0  00000+0 0  9995
2 28628   5.2135  42.7959 0002746  74.8304 111.5592  1.00272496 78005
DIRECTV 8               
1 28659U 05019A   26201.23380727 -.00000001  00000+0  00000+0 0  9998
2 28659   0.0192  64.5817 0003109  59.6642 138.8770  1.00272634 77407
GALAXY 28 (G-28)        
1 28702U 05022A   26201.25656248 -.00000204  00000+0  00000+0 0  9992
2 28702   3.3806  78.5215 0002437  37.3715 247.4043  1.00270962 52302
THAICOM 4               
1 28786U 05028A   26201.28559594 -.00000364  00000+0  00000+0 0  9996
2 28786   0.3288  85.5284 0001662   7.9778  66.8677  1.00272112 52585
ANIK F1R                
1 28868U 05036A   26201.27097718 -.00000080  00000+0  00000+0 0  9995
2 28868   4.3953  76.1679 0003957  22.0739 190.0458  1.00272198 46783
SYRACUSE 3A             
1 28885U 05041B   26201.27112255  .00000124  00000+0  00000+0 0  9992
2 28885   4.7230  75.4287 0002632  35.9553 330.8961  1.00270658 76085
INMARSAT 4-F2           
1 28899U 05044A   26201.29036262 -.00000265  00000+0  00000+0 0  9992
2 28899   5.1387  43.6796 0002924  61.7327  80.6729  1.00271135 75857
METEOSAT-9 (MSG-2)      
1 28912U 05049B   26201.19965310  .00000116  00000+0  00000+0 0  9991
2 28912   9.4343  53.8381 0002437 358.7484   2.9518  1.00274969  7336
EUTELSAT 174A           
1 28924U 05052A   26200.86859530  .00000003  00000+0  00000+0 0  9992
2 28924   4.2996  76.1227 0006021  42.5221 305.6472  1.00272749 52654
ECHOSTAR 10             
1 28935U 06003A   26201.23702707 -.00000057  00000+0  00000+0 0  9996
2 28935   0.0433 289.6204 0001630 149.6957 193.8388  1.00271439 74795
SPAINSAT                
1 28945U 06007A   26200.25885814 -.00000222  00000+0  00000+0 0  9997
2 28945   0.6444  86.0183 0004861  28.0098 246.0049  1.00273069 74543
JCSAT-5A                
1 29045U 06010A   26201.28793595 -.00000330  00000+0  00000+0 0  9991
2 29045   1.1929  83.8471 0001883  26.4828  63.4369  1.00272009 74109
ASTRA 1KR               
1 29055U 06012A   26201.26566252  .00000117  00000+0  00000+0 0  9992
2 29055   0.5573  83.1912 0003492  27.9824 301.4994  1.00273240 46028
GALAXY 16 (G-16)        
1 29236U 06023A   26201.28525940 -.00000129  00000+0  00000+0 0  9990
2 29236   0.0250 139.4045 0002701 340.1404 182.1953  1.00271658 73305
EUTELSAT 33F            
1 29270U 06032A   26201.26843587  .00000153  00000+0  00000+0 0  9992
2 29270   1.7452  81.8749 0003615  33.0810 312.8145  1.00274956 47636
JCSAT-3A                
1 29272U 06033A   26201.28724260 -.00000347  00000+0  00000+0 0  9999
2 29272   0.0351 269.3687 0002303 213.1640  46.9420  1.00271304 48071
